{
    "links": {
        "self": "http://www.neowsapp.com/rest/v1/neo/3655735?api_key=iIulBulltgU6a56xZRHN4H3l9WmuAYTsLGpBGhQ2"
    },
    "id": "3655735",
    "neo_reference_id": "3655735",
    "name": "(2013 YY102)",
    "designation": "2013 YY102",
    "nasa_jpl_url": "http://ssd.jpl.nasa.gov/sbdb.cgi?sstr=3655735",
    "absolute_magnitude_h": 23.5,
    "estimated_diameter": {
        "kilometers": {
            "estimated_diameter_min": 0.0530340723,
            "estimated_diameter_max": 0.1185877909
        },
        "meters": {
            "estimated_diameter_min": 53.0340723319,
            "estimated_diameter_max": 118.5877908577
        },
        "miles": {
            "estimated_diameter_min": 0.0329538346,
            "estimated_diameter_max": 0.0736870142
        },
        "feet": {
            "estimated_diameter_min": 173.9963058693,
            "estimated_diameter_max": 389.0675677576
        }
    },
    "is_potentially_hazardous_asteroid": false,
    "close_approach_data": [
        {
            "close_approach_date": "2013-12-23",
            "close_approach_date_full": "2013-Dec-23 18:40",
            "epoch_date_close_approach": 1387824000000,
            "relative_velocity": {
                "kilometers_per_second": "7.5770470626",
                "kilometers_per_hour": "27277.3694255382",
                "miles_per_hour": "16949.0965744407"
            },
            "miss_distance": {
                "astronomical": "0.0521176499",
                "lunar": "20.2737658111",
                "kilometers": "7796689.414445713",
                "miles": "4844638.1532803194"
            },
            "orbiting_body": "Earth"
        }
    ],
    "orbital_data": {
        "orbit_id": "9",
        "orbit_determination_date": "2017-04-06 08:43:03",
        "first_observation_date": "2013-12-31",
        "last_observation_date": "2014-01-10",
        "data_arc_in_days": 10,
        "observations_used": 41,
        "orbit_uncertainty": "8",
        "minimum_orbit_intersection": ".0272076",
        "jupiter_tisserand_invariant": "3.827",
        "epoch_osculation": "2456659.5",
        "eccentricity": ".4634345028656771",
        "semi_major_axis": "1.874635081722518",
        "inclination": "8.788177209943672",
        "ascending_node_longitude": "105.494462900914",
        "orbital_period": "937.5048799770844",
        "perihelion_distance": "1.005864504569885",
        "perihelion_argument": "348.5126535505875",
        "aphelion_distance": "2.743405658875151",
        "perihelion_time": "2456650.423808471340",
        "mean_anomaly": "3.48523940525778",
        "mean_motion": ".3839980011717907",
        "equinox": "J2000",
        "orbit_class": {
            "orbit_class_type": "APO",
            "orbit_class_description": "Near-Earth asteroid orbits which cross the Earth’s orbit similar to that of 1862 Apollo",
            "orbit_class_range": "a (semi-major axis) > 1.0 AU; q (perihelion) < 1.017 AU"
        }
    },
    "is_sentry_object": false
}